CCSDS_OMM_VERS = 2.0
CREATION_DATE  = 
ORIGINATOR     = 

OBJECT_NAME    = KUIPER-00160
OBJECT_ID      = 2026-030B
CENTER_NAME    = EARTH
REF_FRAME      = TEME
TIME_SYSTEM    = UTC
MEAN_ELEMENT_THEORY = SGP/SGP4

EPOCH          = 2026-03-03T17:03:58.398048
MEAN_MOTION    = 15.35301692
ECCENTRICITY   = .0004762
INCLINATION    = 51.8808
RA_OF_ASC_NODE = 247.9974
ARG_OF_PERICENTER = 39.3435
MEAN_ANOMALY   = 320.7896

EPHEMERIS_TYPE = 0
CLASSIFICATION_TYPE = U
NORAD_CAT_ID   = 67765
ELEMENT_SET_NO = 999
REV_AT_EPOCH   = 417
BSTAR          = .91262E-3
MEAN_MOTION_DOT = .31523E-3
MEAN_MOTION_DDOT = 0

CCSDS_OMM_VERS = 2.0
CREATION_DATE  = 
ORIGINATOR     = 

OBJECT_NAME    = KUIPER-00177
OBJECT_ID      = 2026-030C
CENTER_NAME    = EARTH
REF_FRAME      = TEME
TIME_SYSTEM    = UTC
MEAN_ELEMENT_THEORY = SGP/SGP4

EPOCH          = 2026-03-03T18:21:34.855200
MEAN_MOTION    = 15.36231911
ECCENTRICITY   = .000077
INCLINATION    = 51.8828
RA_OF_ASC_NODE = 247.6152
ARG_OF_PERICENTER = 15.9870
MEAN_ANOMALY   = 344.1140

EPHEMERIS_TYPE = 0
CLASSIFICATION_TYPE = U
NORAD_CAT_ID   = 67766
ELEMENT_SET_NO = 999
REV_AT_EPOCH   = 418
BSTAR          = .8805E-3
MEAN_MOTION_DOT = .31319E-3
MEAN_MOTION_DDOT = 0

CCSDS_OMM_VERS = 2.0
CREATION_DATE  = 
ORIGINATOR     = 

OBJECT_NAME    = KUIPER-00178
OBJECT_ID      = 2026-030D
CENTER_NAME    = EARTH
REF_FRAME      = TEME
TIME_SYSTEM    = UTC
MEAN_ELEMENT_THEORY = SGP/SGP4

EPOCH          = 2026-03-03T18:40:05.869344
MEAN_MOTION    = 15.35239583
ECCENTRICITY   = .0005828
INCLINATION    = 51.8827
RA_OF_ASC_NODE = 247.6984
ARG_OF_PERICENTER = 30.3454
MEAN_ANOMALY   = 329.7868

EPHEMERIS_TYPE = 0
CLASSIFICATION_TYPE = U
NORAD_CAT_ID   = 67767
ELEMENT_SET_NO = 999
REV_AT_EPOCH   = 418
BSTAR          = .87197E-3
MEAN_MOTION_DOT = .3004E-3
MEAN_MOTION_DDOT = 0

CCSDS_OMM_VERS = 2.0
CREATION_DATE  = 
ORIGINATOR     = 

OBJECT_NAME    = KUIPER-00180
OBJECT_ID      = 2026-030E
CENTER_NAME    = EARTH
REF_FRAME      = TEME
TIME_SYSTEM    = UTC
MEAN_ELEMENT_THEORY = SGP/SGP4

EPOCH          = 2026-03-03T17:45:18.828000
MEAN_MOTION    = 15.32150061
ECCENTRICITY   = .0014915
INCLINATION    = 51.8797
RA_OF_ASC_NODE = 248.1798
ARG_OF_PERICENTER = 51.2166
MEAN_ANOMALY   = 309.0149

EPHEMERIS_TYPE = 0
CLASSIFICATION_TYPE = U
NORAD_CAT_ID   = 67768
ELEMENT_SET_NO = 999
REV_AT_EPOCH   = 417
BSTAR          = .43252E-3
MEAN_MOTION_DOT = .13318E-3
MEAN_MOTION_DDOT = 0

CCSDS_OMM_VERS = 2.0
CREATION_DATE  = 
ORIGINATOR     = 

OBJECT_NAME    = KUIPER-00197
OBJECT_ID      = 2026-030F
CENTER_NAME    = EARTH
REF_FRAME      = TEME
TIME_SYSTEM    = UTC
MEAN_ELEMENT_THEORY = SGP/SGP4

EPOCH          = 2026-03-03T19:58:11.489088
MEAN_MOTION    = 15.35998436
ECCENTRICITY   = .0002203
INCLINATION    = 51.8832
RA_OF_ASC_NODE = 247.3147
ARG_OF_PERICENTER = 50.1854
MEAN_ANOMALY   = 309.9326

EPHEMERIS_TYPE = 0
CLASSIFICATION_TYPE = U
NORAD_CAT_ID   = 67769
ELEMENT_SET_NO = 999
REV_AT_EPOCH   = 419
BSTAR          = -.17133E-2
MEAN_MOTION_DOT = -.60878E-3
MEAN_MOTION_DDOT = 0

CCSDS_OMM_VERS = 2.0
CREATION_DATE  = 
ORIGINATOR     = 

OBJECT_NAME    = KUIPER-00198
OBJECT_ID      = 2026-030G
CENTER_NAME    = EARTH
REF_FRAME      = TEME
TIME_SYSTEM    = UTC
MEAN_ELEMENT_THEORY = SGP/SGP4

EPOCH          = 2026-03-03T18:30:56.012832
MEAN_MOTION    = 15.35756465
ECCENTRICITY   = .0002943
INCLINATION    = 51.8810
RA_OF_ASC_NODE = 247.6535
ARG_OF_PERICENTER = 33.9848
MEAN_ANOMALY   = 326.1326

EPHEMERIS_TYPE = 0
CLASSIFICATION_TYPE = U
NORAD_CAT_ID   = 67770
ELEMENT_SET_NO = 999
REV_AT_EPOCH   = 418
BSTAR          = .10938E-2
MEAN_MOTION_DOT = .38444E-3
MEAN_MOTION_DDOT = 0

CCSDS_OMM_VERS = 2.0
CREATION_DATE  = 
ORIGINATOR     = 

OBJECT_NAME    = KUIPER-00199
OBJECT_ID      = 2026-030H
CENTER_NAME    = EARTH
REF_FRAME      = TEME
TIME_SYSTEM    = UTC
MEAN_ELEMENT_THEORY = SGP/SGP4

EPOCH          = 2026-03-03T17:25:55.293888
MEAN_MOTION    = 15.34074346
ECCENTRICITY   = .001026
INCLINATION    = 51.8797
RA_OF_ASC_NODE = 248.0940
ARG_OF_PERICENTER = 44.2734
MEAN_ANOMALY   = 315.9070

EPHEMERIS_TYPE = 0
CLASSIFICATION_TYPE = U
NORAD_CAT_ID   = 67771
ELEMENT_SET_NO = 999
REV_AT_EPOCH   = 417
BSTAR          = .70443E-3
MEAN_MOTION_DOT = .23307E-3
MEAN_MOTION_DDOT = 0

CCSDS_OMM_VERS = 2.0
CREATION_DATE  = 
ORIGINATOR     = 

OBJECT_NAME    = KUIPER-00200
OBJECT_ID      = 2026-030J
CENTER_NAME    = EARTH
REF_FRAME      = TEME
TIME_SYSTEM    = UTC
MEAN_ELEMENT_THEORY = SGP/SGP4

EPOCH          = 2026-03-03T18:13:29.633664
MEAN_MOTION    = 15.36754628
ECCENTRICITY   = .0001449
INCLINATION    = 51.8807
RA_OF_ASC_NODE = 247.5770
ARG_OF_PERICENTER = 209.6671
MEAN_ANOMALY   = 150.4234

EPHEMERIS_TYPE = 0
CLASSIFICATION_TYPE = U
NORAD_CAT_ID   = 67772
ELEMENT_SET_NO = 999
REV_AT_EPOCH   = 418
BSTAR          = .11038E-2
MEAN_MOTION_DOT = .40081E-3
MEAN_MOTION_DDOT = 0

CCSDS_OMM_VERS = 2.0
CREATION_DATE  = 
ORIGINATOR     = 

OBJECT_NAME    = KUIPER-00203
OBJECT_ID      = 2026-030K
CENTER_NAME    = EARTH
REF_FRAME      = TEME
TIME_SYSTEM    = UTC
MEAN_ELEMENT_THEORY = SGP/SGP4

EPOCH          = 2026-03-03T18:00:01.999296
MEAN_MOTION    = 15.25804315
ECCENTRICITY   = .0011295
INCLINATION    = 51.8808
RA_OF_ASC_NODE = 248.1219
ARG_OF_PERICENTER = 44.0684
MEAN_ANOMALY   = 1.8595

EPHEMERIS_TYPE = 0
CLASSIFICATION_TYPE = U
NORAD_CAT_ID   = 67773
ELEMENT_SET_NO = 999
REV_AT_EPOCH   = 274
BSTAR          = -.80559E-1
MEAN_MOTION_DOT = -.1874134E-1
MEAN_MOTION_DDOT = 0

CCSDS_OMM_VERS = 2.0
CREATION_DATE  = 
ORIGINATOR     = 

OBJECT_NAME    = KUIPER-00205
OBJECT_ID      = 2026-030L
CENTER_NAME    = EARTH
REF_FRAME      = TEME
TIME_SYSTEM    = UTC
MEAN_ELEMENT_THEORY = SGP/SGP4

EPOCH          = 2026-03-03T18:25:31.942848
MEAN_MOTION    = 15.36092095
ECCENTRICITY   = .0002535
INCLINATION    = 51.8807
RA_OF_ASC_NODE = 247.6289
ARG_OF_PERICENTER = 4.5714
MEAN_ANOMALY   = 355.5295

EPHEMERIS_TYPE = 0
CLASSIFICATION_TYPE = U
NORAD_CAT_ID   = 67774
ELEMENT_SET_NO = 999
REV_AT_EPOCH   = 418
BSTAR          = .88316E-3
MEAN_MOTION_DOT = .31275E-3
MEAN_MOTION_DDOT = 0

CCSDS_OMM_VERS = 2.0
CREATION_DATE  = 
ORIGINATOR     = 

OBJECT_NAME    = KUIPER-00208
OBJECT_ID      = 2026-030M
CENTER_NAME    = EARTH
REF_FRAME      = TEME
TIME_SYSTEM    = UTC
MEAN_ELEMENT_THEORY = SGP/SGP4

EPOCH          = 2026-03-03T17:42:03.022272
MEAN_MOTION    = 15.32756982
ECCENTRICITY   = .0014446
INCLINATION    = 51.8822
RA_OF_ASC_NODE = 248.1734
ARG_OF_PERICENTER = 44.3183
MEAN_ANOMALY   = 315.8956

EPHEMERIS_TYPE = 0
CLASSIFICATION_TYPE = U
NORAD_CAT_ID   = 67775
ELEMENT_SET_NO = 999
REV_AT_EPOCH   = 417
BSTAR          = -.75687E-4
MEAN_MOTION_DOT = -.2818E-4
MEAN_MOTION_DDOT = 0

CCSDS_OMM_VERS = 2.0
CREATION_DATE  = 
ORIGINATOR     = 

OBJECT_NAME    = KUIPER-00209
OBJECT_ID      = 2026-030N
CENTER_NAME    = EARTH
REF_FRAME      = TEME
TIME_SYSTEM    = UTC
MEAN_ELEMENT_THEORY = SGP/SGP4

EPOCH          = 2026-03-03T17:47:12.996960
MEAN_MOTION    = 15.31307195
ECCENTRICITY   = .0013141
INCLINATION    = 51.8814
RA_OF_ASC_NODE = 248.1939
ARG_OF_PERICENTER = 49.2250
MEAN_ANOMALY   = 310.9872

EPHEMERIS_TYPE = 0
CLASSIFICATION_TYPE = U
NORAD_CAT_ID   = 67776
ELEMENT_SET_NO = 999
REV_AT_EPOCH   = 417
BSTAR          = -.44195E-3
MEAN_MOTION_DOT = -.13945E-3
MEAN_MOTION_DDOT = 0

