KUIPER-00160            
1 67765U 26030B   26062.71109257  .00031523  00000+0  91262-3 0  9996
2 67765  51.8808 247.9974 0004762  39.3435 320.7896 15.35301692  4173
KUIPER-00177            
1 67766U 26030C   26062.76498675  .00031319  00000+0  88050-3 0  9991
2 67766  51.8828 247.6152 0000770  15.9870 344.1140 15.36231911  4189
KUIPER-00178            
1 67767U 26030D   26062.77784571  .00030040  00000+0  87197-3 0  9997
2 67767  51.8827 247.6984 0005828  30.3454 329.7868 15.35239583  4188
KUIPER-00180            
1 67768U 26030E   26062.73980125  .00013318  00000+0  43252-3 0  9990
2 67768  51.8797 248.1798 0014915  51.2166 309.0149 15.32150061  4175
KUIPER-00197            
1 67769U 26030F   26062.83207742 -.00060878  00000+0 -17133-2 0  9992
2 67769  51.8832 247.3147 0002203  50.1854 309.9326 15.35998436  4191
KUIPER-00198            
1 67770U 26030G   26062.77148163  .00038444  00000+0  10938-2 0  9996
2 67770  51.8810 247.6535 0002943  33.9848 326.1326 15.35756465  4180
KUIPER-00199            
1 67771U 26030H   26062.72633442  .00023307  00000+0  70443-3 0  9991
2 67771  51.8797 248.0940 0010260  44.2734 315.9070 15.34074346  4171
KUIPER-00200            
1 67772U 26030J   26062.75937076  .00040081  00000+0  11038-2 0  9997
2 67772  51.8807 247.5770 0001449 209.6671 150.4234 15.36754628  4180
KUIPER-00203            
1 67773U 26030K   26062.75002314 -.01874134  00000+0 -80559-1 0  9996
2 67773  51.8808 248.1219 0011295  44.0684   1.8595 15.25804315  2748
KUIPER-00205            
1 67774U 26030L   26062.76773082  .00031275  00000+0  88316-3 0  9994
2 67774  51.8807 247.6289 0002535   4.5714 355.5295 15.36092095  4183
KUIPER-00208            
1 67775U 26030M   26062.73753498 -.00002818  00000+0 -75687-4 0  9992
2 67775  51.8822 248.1734 0014446  44.3183 315.8956 15.32756982  4178
KUIPER-00209            
1 67776U 26030N   26062.74112265 -.00013945  00000+0 -44195-3 0  9997
2 67776  51.8814 248.1939 0013141  49.2250 310.9872 15.31307195  4177
